     3.00           N                   E                   RINEX VERSION / TYPE
BRD_USR             ESA                 20190108 201733  UTCPGM / RUN BY / DATE
 GAL   5.0750E+01  7.0312E-02 -4.8523E-03  0.0000E+00       IONOSPHERIC CORR
GAUT  0.0000000000E+00 0.000000000E+00 172800 2035 GSTB   0 TIME SYSTEM CORR
GPGA -5.5297277868E-10 4.884981308E-15 259200 2035 GSTB   0 TIME SYSTEM CORR
                                                            END OF HEADER
E08 2019 01 08 18 20 00 6.427329150029E-03-7.446487870766E-12 0.000000000000E+00
     1.400000000000E+01 2.243750000000E+01 3.324424189897E-09-7.275446234167E-01
     1.121312379837E-06 2.174029359594E-04 8.266419172287E-06 5.440617183685E+03
     2.388000000000E+05 1.490116119385E-08 1.234606358973E+00-5.029141902924E-08
     9.583017692752E-01 1.647500000000E+02 4.544249424286E-01-5.518086993329E-09
     6.321691895271E-10 2.580000000000E+02 2.035000000000E+03 0.000000000000E+00
     3.120000000000E+00 0.000000000000E+00-8.614733815193E-09 0.000000000000E+00
     2.395000000000E+05 0.000000000000E+00 0.000000000000E+00 0.000000000000E+00
E12 2019 01 08 18 20 00 5.898556380998E-03 8.431300102529E-11 0.000000000000E+00
     1.400000000000E+01-9.046875000000E+01 3.031197690122E-09-4.079071201574E-01
    -4.170462489128E-06 3.816639073193E-04-2.216547727585E-07 5.440603492737E+03
     2.388000000000E+05-3.166496753693E-08-8.619896783129E-01-4.470348358154E-08
     9.819237123097E-01 3.564687500000E+02-8.944355379732E-01-5.912389131882E-09
    -1.967939115420E-10 2.580000000000E+02 2.035000000000E+03 0.000000000000E+00
     3.120000000000E+00 0.000000000000E+00-1.559965312481E-08 0.000000000000E+00
     2.395000000000E+05 0.000000000000E+00 0.000000000000E+00 0.000000000000E+00
E14 2019 01 08 18 20 00 6.462836230639E-03-5.584865903074E-12 0.000000000000E+00
     1.400000000000E+01 5.268750000000E+01 2.406171655279E-09 8.187700048515E-01
     1.095235347748E-06 1.663541839225E-01 2.941116690636E-06 5.289342159271E+03
     2.388000000000E+05 5.645677447319E-06-1.463125278206E+00-4.205852746964E-06
     8.825858459402E-01 2.634062500000E+02 1.454967564233E+00-2.698683839586E-09
     8.739649755778E-10 2.580000000000E+02 2.035000000000E+03 0.000000000000E+00
     3.120000000000E+00 5.600000000000E+01 3.306195139885E-08 0.000000000000E+00
     2.395000000000E+05 0.000000000000E+00 0.000000000000E+00 0.000000000000E+00
E18 2019 01 08 18 20 00 5.621155723929E-03-2.849276370398E-11 0.000000000000E+00
     1.400000000000E+01-4.375000000000E+00 4.488401245642E-09-2.353079972712E+00
     2.693384885788E-06 1.663841865957E-01-7.878988981247E-06 5.289410381317E+03
     2.388000000000E+05 3.257766366005E-06-1.445896127720E+00 1.186504960060E-06
     8.817675773418E-01 4.643437500000E+02 1.439507163629E+00-6.849213868678E-09
     2.067943280995E-10 2.580000000000E+02 2.035000000000E+03 0.000000000000E+00
     3.120000000000E+00 5.600000000000E+01 1.420266926289E-08 0.000000000000E+00
     2.395000000000E+05 0.000000000000E+00 0.000000000000E+00 0.000000000000E+00
E19 2019 01 08 18 20 00-9.278068318963E-06 3.126388037344E-13 0.000000000000E+00
     1.400000000000E+01 3.746875000000E+01 3.385855320179E-09 1.382481531414E+00
     1.635402441025E-06 1.322169555351E-04 8.564442396164E-06 5.440614271164E+03
     2.388000000000E+05-2.421438694000E-08 1.239959881352E+00 2.421438694000E-08
     9.580867466501E-01 1.574687500000E+02 2.349510971934E+00-5.566303287446E-09
     6.528843381104E-10 2.580000000000E+02 2.035000000000E+03 0.000000000000E+00
     3.120000000000E+00 0.000000000000E+00-8.614733815193E-09 0.000000000000E+00
     2.395000000000E+05 0.000000000000E+00 0.000000000000E+00 0.000000000000E+00
E24 2019 01 08 18 20 00 6.296258128714E-03-1.975308805413E-11 0.000000000000E+00
     1.400000000000E+01 6.571875000000E+01 2.487960776410E-09-4.633501163922E-01
     2.963468432426E-06 4.695503739640E-04 1.201406121254E-05 5.440620012283E+03
     2.388000000000E+05 0.000000000000E+00-2.943988798002E+00-3.539025783539E-08
     9.878568896446E-01 9.178125000000E+01 4.510851589703E-01-5.092712131902E-09
    -5.607376426879E-10 2.580000000000E+02 2.035000000000E+03 0.000000000000E+00
     3.120000000000E+00 0.000000000000E+00 4.284083843231E-08 0.000000000000E+00
     2.395000000000E+05 0.000000000000E+00 0.000000000000E+00 0.000000000000E+00
E25 2019 01 08 18 20 00 1.929760968778E-03-1.142552719102E-11 0.000000000000E+00
     1.400000000000E+01 5.856250000000E+01 2.483674883600E-09 5.775483192400E-01
     2.665445208549E-06 2.142457524315E-04 1.230090856552E-05 5.440628826141E+03
     2.388000000000E+05-5.587935447693E-09-2.950072404277E+00 1.117587089539E-08
     9.898582625184E-01 9.021875000000E+01-1.352754898528E+00-5.114498753688E-09
    -5.543088034723E-10 2.580000000000E+02 2.035000000000E+03 0.000000000000E+00
     3.120000000000E+00 0.000000000000E+00-1.396983861923E-09 0.000000000000E+00
     2.395000000000E+05 0.000000000000E+00 0.000000000000E+00 0.000000000000E+00
E26 2019 01 08 18 20 00 5.042360047810E-03-4.325784175307E-11 0.000000000000E+00
     1.400000000000E+01-8.984375000000E+01 2.994767601234E-09 2.331718501435E+00
    -4.129484295845E-06 3.249304136261E-04-9.313225746155E-08 5.440606391907E+03
     2.388000000000E+05 1.676380634308E-08-8.583444126901E-01 5.587935447693E-09
     9.782683481634E-01 3.505625000000E+02-2.071537736913E+00-5.838457480903E-09
    -1.332198348551E-10 2.580000000000E+02 2.035000000000E+03 0.000000000000E+00
     3.120000000000E+00 0.000000000000E+00 1.396983861923E-09 0.000000000000E+00
     2.395000000000E+05 0.000000000000E+00 0.000000000000E+00 0.000000000000E+00
E27 2019 01 08 18 20 00 5.537322722375E-04-7.645439836779E-12 0.000000000000E+00
     1.400000000000E+01 6.037500000000E+01 2.432958485344E-09-2.220653627731E+00
     2.687796950340E-06 2.050398616120E-04 1.152791082859E-05 5.440634477615E+03
     2.388000000000E+05-4.842877388000E-08-2.950046466739E+00 5.587935447693E-09
     9.898249270041E-01 1.044687500000E+02-9.108651730077E-01-5.117713173296E-09
    -4.935919886590E-10 2.580000000000E+02 2.035000000000E+03 0.000000000000E+00
     3.120000000000E+00 0.000000000000E+00-2.793967723846E-09 0.000000000000E+00
     2.395000000000E+05 0.000000000000E+00 0.000000000000E+00 0.000000000000E+00
E30 2019 01 08 18 20 00 5.204415647313E-03-3.048228336411E-11 0.000000000000E+00
     1.400000000000E+01 4.721875000000E+01 2.562249585123E-09-2.875479100869E+00
     2.264976501465E-06 3.010005457327E-04 1.161918044090E-05 5.440620330811E+03
     2.388000000000E+05-9.313225746155E-09-2.944044568828E+00-1.862645149231E-08
     9.878405707934E-01 1.020312500000E+02 5.095052344581E-01-5.160929259133E-09
    -4.832344143673E-10 2.580000000000E+02 2.035000000000E+03 0.000000000000E+00
     3.120000000000E+00 0.000000000000E+00-3.259629011154E-09 0.000000000000E+00
     2.395000000000E+05 0.000000000000E+00 0.000000000000E+00 0.000000000000E+00
E31 2019 01 08 18 20 00 9.376968373545E-04-9.606537787477E-12 0.000000000000E+00
     1.400000000000E+01 7.656250000000E+01 2.480817621726E-09 2.315510834961E+00
     3.635883331299E-06 2.511091297492E-04 1.179426908493E-05 5.440632997513E+03
     2.388000000000E+05 6.146728992462E-08-2.950095320889E+00-6.705522537231E-08
     9.898273788548E-01 9.678125000000E+01-1.520007937975E+00-5.114141595954E-09
    -5.307363930154E-10 2.580000000000E+02 2.035000000000E+03 0.000000000000E+00
     3.120000000000E+00 0.000000000000E+00-2.328306436539E-10 0.000000000000E+00
     2.395000000000E+05 0.000000000000E+00 0.000000000000E+00 0.000000000000E+00
E33 2019 01 08 18 20 00 8.478832896799E-04 5.684341886081E-14 0.000000000000E+00
     1.400000000000E+01-8.834375000000E+01 3.000839282715E-09 9.576182339689E-01
    -4.077330231667E-06 3.631877480075E-04-1.452863216400E-07 5.440594961166E+03
     2.388000000000E+05-2.048909664154E-08-8.673068106042E-01-4.656612873077E-08
     9.851462560501E-01 3.540937500000E+02-1.489170425080E+00-5.879887778070E-09
    -1.500062483624E-10 2.580000000000E+02 2.035000000000E+03 0.000000000000E+00
     3.120000000000E+00 5.600000000000E+01-8.149072527885E-09 0.000000000000E+00
     2.395000000000E+05 0.000000000000E+00 0.000000000000E+00 0.000000000000E+00
E03 2019 01 08 18 20 00-1.199613907374E-04-4.263256414561E-12 0.000000000000E+00
     1.400000000000E+01 1.553125000000E+01 3.463358548499E-09-1.047378217678E-01
     7.096678018570E-07 2.608799841255E-04 8.570030331612E-06 5.440613475800E+03
     2.388000000000E+05 2.793967723846E-08 1.243234188986E+00-1.862645149231E-08
     9.523140836127E-01 1.567500000000E+02 6.154053109928E-01-5.545945296597E-09
     6.207401420328E-10 2.580000000000E+02 2.035000000000E+03 0.000000000000E+00
     3.120000000000E+00 0.000000000000E+00-1.862645149231E-09 0.000000000000E+00
     2.395500000000E+05 0.000000000000E+00 0.000000000000E+00 0.000000000000E+00
E13 2019 01 08 18 20 00 3.814877127297E-04 4.973799150321E-13 0.000000000000E+00
     1.400000000000E+01-8.012500000000E+01 2.844047037403E-09 2.612288484804E+00
    -3.667548298836E-06 3.369415644556E-04 7.450580596924E-08 5.440601644516E+03
     2.388000000000E+05-3.725290298462E-09-8.672706311772E-01-1.862645149231E-08
     9.851506448044E-01 3.501250000000E+02-1.570250659814E+00-5.782383716635E-09
    -1.375057276655E-10 5.210000000000E+02 2.035000000000E+03 0.000000000000E+00
     3.120000000000E+00 4.550000000000E+02-4.190951585770E-09-5.122274160385E-09
     2.396350000000E+05 0.000000000000E+00 0.000000000000E+00 0.000000000000E+00
